{
  "type": "FeatureCollection",
  "features": [
    {
      "type": "Feature",
      "properties": {
        "norad_id": 58647,
        "name": "TIANMU-1 13",
        "group": "weather",
        "lat": -80.56624154026541,
        "lon": 135.3203178602384,
        "alt_km": 495.41627526281627,
        "timestamp": "2025-12-12T18:57:43.775369+00:00",
        "meta_object_name": "TIANMU-1 13",
        "meta_object_id": "2023-205C",
        "meta_epoch": "2025-12-12T08:21:18.673920",
        "meta_mean_motion": 15.24517814,
        "meta_eccentricity": 0.00060584,
        "meta_inclination": 97.3627,
        "meta_ra_of_asc_node": 5.9846,
        "meta_arg_of_pericenter": 268.8359,
        "meta_mean_anomaly": 91.2184,
        "meta_ephemeris_type": 0,
        "meta_classification_type": "U",
        "meta_norad_cat_id": 58647,
        "meta_element_set_no": 999,
        "meta_rev_at_epoch": 10901,
        "meta_bstar": 0.00041646726,
        "meta_mean_motion_dot": 0.00010183,
        "meta_mean_motion_ddot": 0,
        "tle_line1": "1 58647U 23205C   25346.34813280  .00010183  00000+0  41647-3 0  9998",
        "tle_line2": "2 58647  97.3627   5.9846 0006058 268.8359  91.2184 15.24517814109012"
      },
      "geometry": {
        "type": "Point",
        "coordinates": [
          135.3203178602384,
          -80.56624154026541
        ]
      }
    },
    {
      "type": "Feature",
      "properties": {
        "norad_id": 58648,
        "name": "TIANMU-1 14",
        "group": "weather",
        "lat": -4.88387227418076,
        "lon": 6.4000809276532395,
        "alt_km": 495.33695990510114,
        "timestamp": "2025-12-12T18:57:43.775379+00:00",
        "meta_object_name": "TIANMU-1 14",
        "meta_object_id": "2023-205D",
        "meta_epoch": "2025-12-12T07:57:23.981184",
        "meta_mean_motion": 15.24501667,
        "meta_eccentricity": 0.00068454,
        "meta_inclination": 97.356,
        "meta_ra_of_asc_node": 5.3174,
        "meta_arg_of_pericenter": 274.4611,
        "meta_mean_anomaly": 85.5845,
        "meta_ephemeris_type": 0,
        "meta_classification_type": "U",
        "meta_norad_cat_id": 58648,
        "meta_element_set_no": 999,
        "meta_rev_at_epoch": 10901,
        "meta_bstar": 0.00041262215,
        "meta_mean_motion_dot": 0.00010085,
        "meta_mean_motion_ddot": 0,
        "tle_line1": "1 58648U 23205D   25346.33152756  .00010085  00000+0  41262-3 0  9996",
        "tle_line2": "2 58648  97.3560   5.3174 0006845 274.4611  85.5845 15.24501667109014"
      },
      "geometry": {
        "type": "Point",
        "coordinates": [
          6.4000809276532395,
          -4.88387227418076
        ]
      }
    },
    {
      "type": "Feature",
      "properties": {
        "norad_id": 58660,
        "name": "TIANMU-1 19",
        "group": "weather",
        "lat": -69.34624743355651,
        "lon": -102.45303452845658,
        "alt_km": 486.7303400038036,
        "timestamp": "2025-12-12T18:57:43.775389+00:00",
        "meta_object_name": "TIANMU-1 19",
        "meta_object_id": "2023-208A",
        "meta_epoch": "2025-12-12T06:51:54.736416",
        "meta_mean_motion": 15.27837498,
        "meta_eccentricity": 0.00040897,
        "meta_inclination": 97.4384,
        "meta_ra_of_asc_node": 97.3237,
        "meta_arg_of_pericenter": 255.1315,
        "meta_mean_anomaly": 104.9472,
        "meta_ephemeris_type": 0,
        "meta_classification_type": "U",
        "meta_norad_cat_id": 58660,
        "meta_element_set_no": 999,
        "meta_rev_at_epoch": 10875,
        "meta_bstar": 0.00050071693,
        "meta_mean_motion_dot": 0.00013549,
        "meta_mean_motion_ddot": 0,
        "tle_line1": "1 58660U 23208A   25346.28605019  .00013549  00000+0  50072-3 0  9999",
        "tle_line2": "2 58660  97.4384  97.3237 0004089 255.1315 104.9472 15.27837498108758"
      },
      "geometry": {
        "type": "Point",
        "coordinates": [
          -102.45303452845658,
          -69.34624743355651
        ]
      }
    },
    {
      "type": "Feature",
      "properties": {
        "norad_id": 58661,
        "name": "TIANMU-1 20",
        "group": "weather",
        "lat": -34.621870612437924,
        "lon": 103.44521158345802,
        "alt_km": 482.75140876266505,
        "timestamp": "2025-12-12T18:57:43.775399+00:00",
        "meta_object_name": "TIANMU-1 20",
        "meta_object_id": "2023-208B",
        "meta_epoch": "2025-12-12T06:32:58.843392",
        "meta_mean_motion": 15.29027867,
        "meta_eccentricity": 0.00063217,
        "meta_inclination": 97.4321,
        "meta_ra_of_asc_node": 97.7578,
        "meta_arg_of_pericenter": 268.0498,
        "meta_mean_anomaly": 92.0018,
        "meta_ephemeris_type": 0,
        "meta_classification_type": "U",
        "meta_norad_cat_id": 58661,
        "meta_element_set_no": 999,
        "meta_rev_at_epoch": 10882,
        "meta_bstar": 0.00050781795,
        "meta_mean_motion_dot": 0.00014258,
        "meta_mean_motion_ddot": 0,
        "tle_line1": "1 58661U 23208B   25346.27290328  .00014258  00000+0  50782-3 0  9998",
        "tle_line2": "2 58661  97.4321  97.7578 0006321 268.0498  92.0018 15.29027867108822"
      },
      "geometry": {
        "type": "Point",
        "coordinates": [
          103.44521158345802,
          -34.621870612437924
        ]
      }
    },
    {
      "type": "Feature",
      "properties": {
        "norad_id": 58662,
        "name": "TIANMU-1 21",
        "group": "weather",
        "lat": -29.522790390618496,
        "lon": 104.42511579778443,
        "alt_km": 475.8015394158183,
        "timestamp": "2025-12-12T18:57:43.775410+00:00",
        "meta_object_name": "TIANMU-1 21",
        "meta_object_id": "2023-208C",
        "meta_epoch": "2025-12-12T06:32:51.133920",
        "meta_mean_motion": 15.31536295,
        "meta_eccentricity": 0.00059132,
        "meta_inclination": 97.4369,
        "meta_ra_of_asc_node": 99.664,
        "meta_arg_of_pericenter": 262.1294,
        "meta_mean_anomaly": 97.9276,
        "meta_ephemeris_type": 0,
        "meta_classification_type": "U",
        "meta_norad_cat_id": 58662,
        "meta_element_set_no": 999,
        "meta_rev_at_epoch": 10892,
        "meta_bstar": 0.00056122176,
        "meta_mean_motion_dot": 0.00017041,
        "meta_mean_motion_ddot": 0,
        "tle_line1": "1 58662U 23208C   25346.27281405  .00017041  00000+0  56122-3 0  9992",
        "tle_line2": "2 58662  97.4369  99.6640 0005913 262.1294  97.9276 15.31536295108925"
      },
      "geometry": {
        "type": "Point",
        "coordinates": [
          104.42511579778443,
          -29.522790390618496
        ]
      }
    },
    {
      "type": "Feature",
      "properties": {
        "norad_id": 58663,
        "name": "TIANMU-1 22",
        "group": "weather",
        "lat": -70.4053812282417,
        "lon": -103.64403306952946,
        "alt_km": 488.7803884141995,
        "timestamp": "2025-12-12T18:57:43.775420+00:00",
        "meta_object_name": "TIANMU-1 22",
        "meta_object_id": "2023-208D",
        "meta_epoch": "2025-12-12T06:51:29.740032",
        "meta_mean_motion": 15.27592697,
        "meta_eccentricity": 0.0002697,
        "meta_inclination": 97.4377,
        "meta_ra_of_asc_node": 97.3827,
        "meta_arg_of_pericenter": 289.5362,
        "meta_mean_anomaly": 70.5586,
        "meta_ephemeris_type": 0,
        "meta_classification_type": "U",
        "meta_norad_cat_id": 58663,
        "meta_element_set_no": 999,
        "meta_rev_at_epoch": 10876,
        "meta_bstar": 0.00046500271,
        "meta_mean_motion_dot": 0.00012481,
        "meta_mean_motion_ddot": 0,
        "tle_line1": "1 58663U 23208D   25346.28576088  .00012481  00000+0  46500-3 0  9990",
        "tle_line2": "2 58663  97.4377  97.3827 0002697 289.5362  70.5586 15.27592697108768"
      },
      "geometry": {
        "type": "Point",
        "coordinates": [
          -103.64403306952946,
          -70.4053812282417
        ]
      }
    },
    {
      "type": "Feature",
      "properties": {
        "norad_id": 58700,
        "name": "TIANMU-1 15",
        "group": "weather",
        "lat": 20.594097014800518,
        "lon": 165.43627321569636,
        "alt_km": 491.15352760179485,
        "timestamp": "2025-12-12T18:57:43.775430+00:00",
        "meta_object_name": "TIANMU-1 15",
        "meta_object_id": "2024-004A",
        "meta_epoch": "2025-12-11T12:56:40.540704",
        "meta_mean_motion": 15.24670451,
        "meta_eccentricity": 0.00052437,
        "meta_inclination": 97.4631,
        "meta_ra_of_asc_node": 167.0136,
        "meta_arg_of_pericenter": 303.7498,
        "meta_mean_anomaly": 56.324,
        "meta_ephemeris_type": 0,
        "meta_classification_type": "U",
        "meta_norad_cat_id": 58700,
        "meta_element_set_no": 999,
        "meta_rev_at_epoch": 10716,
        "meta_bstar": 0.00086402607,
        "meta_mean_motion_dot": 0.00021326,
        "meta_mean_motion_ddot": 0,
        "tle_line1": "1 58700U 24004A   25345.53935811  .00021326  00000+0  86403-3 0  9991",
        "tle_line2": "2 58700  97.4631 167.0136 0005243 303.7498  56.3240 15.24670451107164"
      },
      "geometry": {
        "type": "Point",
        "coordinates": [
          165.43627321569636,
          20.594097014800518
        ]
      }
    }
  ]
}